{
  "type": "FeatureCollection",
  "features": [
    {
      "type": "Feature",
      "properties": {
        "norad_id": 39773,
        "name": "EUTELSAT 3B",
        "group": "eutelsat",
        "lat": 0.08015198259155247,
        "lon": 77.38891055694619,
        "alt_km": 35802.38140780501,
        "timestamp": "2025-12-24T22:42:21.693712+00:00",
        "meta_object_name": "EUTELSAT 3B",
        "meta_object_id": "2014-030A",
        "meta_epoch": "2025-12-24T06:15:59.412384",
        "meta_mean_motion": 1.00272567,
        "meta_eccentricity": 0.00043423,
        "meta_inclination": 0.0612,
        "meta_ra_of_asc_node": 347.6458,
        "meta_arg_of_pericenter": 244.272,
        "meta_mean_anomaly": 318.2288,
        "meta_ephemeris_type": 0,
        "meta_classification_type": "U",
        "meta_norad_cat_id": 39773,
        "meta_element_set_no": 999,
        "meta_rev_at_epoch": 4231,
        "meta_bstar": 0,
        "meta_mean_motion_dot": 4.1e-07,
        "meta_mean_motion_ddot": 0,
        "tle_line1": "1 39773U 14030A   25358.26110431  .00000041  00000+0  00000+0 0  9991",
        "tle_line2": "2 39773   0.0612 347.6458 0004342 244.2720 318.2288  1.00272567 42313"
      },
      "geometry": {
        "type": "Point",
        "coordinates": [
          77.38891055694619,
          0.08015198259155247
        ]
      }
    },
    {
      "type": "Feature",
      "properties": {
        "norad_id": 40425,
        "name": "EUTELSAT 115 WEST B",
        "group": "eutelsat",
        "lat": 0.0034949267154505146,
        "lon": -40.62700551475529,
        "alt_km": 35785.583607049484,
        "timestamp": "2025-12-24T22:42:21.693724+00:00",
        "meta_object_name": "EUTELSAT 115 WEST B",
        "meta_object_id": "2015-010B",
        "meta_epoch": "2025-12-24T05:59:38.935680",
        "meta_mean_motion": 1.00270958,
        "meta_eccentricity": 1.68e-05,
        "meta_inclination": 0.0109,
        "meta_ra_of_asc_node": 152.1321,
        "meta_arg_of_pericenter": 169.5884,
        "meta_mean_anomaly": 106.2964,
        "meta_ephemeris_type": 0,
        "meta_classification_type": "U",
        "meta_norad_cat_id": 40425,
        "meta_element_set_no": 999,
        "meta_rev_at_epoch": 3963,
        "meta_bstar": 0,
        "meta_mean_motion_dot": -4e-08,
        "meta_mean_motion_ddot": 0,
        "tle_line1": "1 40425U 15010B   25358.24975620 -.00000004  00000+0  00000+0 0  9993",
        "tle_line2": "2 40425   0.0109 152.1321 0000168 169.5884 106.2964  1.00270958 39639"
      },
      "geometry": {
        "type": "Point",
        "coordinates": [
          -40.62700551475529,
          0.0034949267154505146
        ]
      }
    },
    {
      "type": "Feature",
      "properties": {
        "norad_id": 40875,
        "name": "EUTELSAT 8 WEST B",
        "group": "eutelsat",
        "lat": 0.07305716916517778,
        "lon": 66.31779398045153,
        "alt_km": 35802.09822618507,
        "timestamp": "2025-12-24T22:42:21.693736+00:00",
        "meta_object_name": "EUTELSAT 8 WEST B",
        "meta_object_id": "2015-039B",
        "meta_epoch": "2025-12-24T06:12:52.211232",
        "meta_mean_motion": 1.00271266,
        "meta_eccentricity": 0.00042328,
        "meta_inclination": 0.0641,
        "meta_ra_of_asc_node": 6.9443,
        "meta_arg_of_pericenter": 266.9132,
        "meta_mean_anomaly": 264.3953,
        "meta_ephemeris_type": 0,
        "meta_classification_type": "U",
        "meta_norad_cat_id": 40875,
        "meta_element_set_no": 999,
        "meta_rev_at_epoch": 3790,
        "meta_bstar": 0,
        "meta_mean_motion_dot": -4.5e-07,
        "meta_mean_motion_ddot": 0,
        "tle_line1": "1 40875U 15039B   25358.25893763 -.00000045  00000+0  00000+0 0  9996",
        "tle_line2": "2 40875   0.0641   6.9443 0004232 266.9132 264.3953  1.00271266 37909"
      },
      "geometry": {
        "type": "Point",
        "coordinates": [
          66.31779398045153,
          0.07305716916517778
        ]
      }
    },
    {
      "type": "Feature",
      "properties": {
        "norad_id": 41310,
        "name": "EUTELSAT 9B",
        "group": "eutelsat",
        "lat": 0.0348449687811657,
        "lon": 83.32289610895083,
        "alt_km": 35804.68925731832,
        "timestamp": "2025-12-24T22:42:21.693748+00:00",
        "meta_object_name": "EUTELSAT 9B",
        "meta_object_id": "2016-005A",
        "meta_epoch": "2025-12-24T06:17:44.244960",
        "meta_mean_motion": 1.00272813,
        "meta_eccentricity": 0.00045278,
        "meta_inclination": 0.023,
        "meta_ra_of_asc_node": 38.5865,
        "meta_arg_of_pericenter": 233.3148,
        "meta_mean_anomaly": 284.5874,
        "meta_ephemeris_type": 0,
        "meta_classification_type": "U",
        "meta_norad_cat_id": 41310,
        "meta_element_set_no": 999,
        "meta_rev_at_epoch": 3636,
        "meta_bstar": 0,
        "meta_mean_motion_dot": 8.3e-07,
        "meta_mean_motion_ddot": 0,
        "tle_line1": "1 41310U 16005A   25358.26231765  .00000083  00000+0  00000+0 0  9995",
        "tle_line2": "2 41310   0.0230  38.5865 0004527 233.3148 284.5874  1.00272813 36363"
      },
      "geometry": {
        "type": "Point",
        "coordinates": [
          83.32289610895083,
          0.0348449687811657
        ]
      }
    },
    {
      "type": "Feature",
      "properties": {
        "norad_id": 41382,
        "name": "EUTELSAT 65 WEST A",
        "group": "eutelsat",
        "lat": 0.023710127015350708,
        "lon": 9.14292341591898,
        "alt_km": 35786.50355073434,
        "timestamp": "2025-12-24T22:42:21.693761+00:00",
        "meta_object_name": "EUTELSAT 65 WEST A",
        "meta_object_id": "2016-014A",
        "meta_epoch": "2025-12-24T00:43:23.206080",
        "meta_mean_motion": 1.00272444,
        "meta_eccentricity": 0.00022288,
        "meta_inclination": 0.0493,
        "meta_ra_of_asc_node": 341.2447,
        "meta_arg_of_pericenter": 294.7713,
        "meta_mean_anomaly": 122.4597,
        "meta_ephemeris_type": 0,
        "meta_classification_type": "U",
        "meta_norad_cat_id": 41382,
        "meta_element_set_no": 999,
        "meta_rev_at_epoch": 3577,
        "meta_bstar": 0,
        "meta_mean_motion_dot": -2.55e-06,
        "meta_mean_motion_ddot": 0,
        "tle_line1": "1 41382U 16014A   25358.03012970 -.00000255  00000+0  00000+0 0  9996",
        "tle_line2": "2 41382   0.0493 341.2447 0002228 294.7713 122.4597  1.00272444 35774"
      },
      "geometry": {
        "type": "Point",
        "coordinates": [
          9.14292341591898,
          0.023710127015350708
        ]
      }
    },
    {
      "type": "Feature",
      "properties": {
        "norad_id": 41589,
        "name": "EUTELSAT 117 WEST B",
        "group": "eutelsat",
        "lat": 0.0027909643865574652,
        "lon": -42.72343346597073,
        "alt_km": 35785.63503839113,
        "timestamp": "2025-12-24T22:42:21.693773+00:00",
        "meta_object_name": "EUTELSAT 117 WEST B",
        "meta_object_id": "2016-038B",
        "meta_epoch": "2025-12-23T15:59:57.810912",
        "meta_mean_motion": 1.00269264,
        "meta_eccentricity": 2.679e-05,
        "meta_inclination": 0.0112,
        "meta_ra_of_asc_node": 151.1868,
        "meta_arg_of_pericenter": 153.5075,
        "meta_mean_anomaly": 270.7383,
        "meta_ephemeris_type": 0,
        "meta_classification_type": "U",
        "meta_norad_cat_id": 41589,
        "meta_element_set_no": 999,
        "meta_rev_at_epoch": 3490,
        "meta_bstar": 0,
        "meta_mean_motion_dot": 1e-07,
        "meta_mean_motion_ddot": 0,
        "tle_line1": "1 41589U 16038B   25357.66664133  .00000010  00000+0  00000+0 0  9991",
        "tle_line2": "2 41589   0.0112 151.1868 0000267 153.5075 270.7383  1.00269264 34900"
      },
      "geometry": {
        "type": "Point",
        "coordinates": [
          -42.72343346597073,
          0.0027909643865574652
        ]
      }
    },
    {
      "type": "Feature",
      "properties": {
        "norad_id": 42741,
        "name": "EUTELSAT 172B",
        "group": "eutelsat",
        "lat": 0.00023736458049468438,
        "lon": -113.69935143488226,
        "alt_km": 35786.82802240971,
        "timestamp": "2025-12-24T22:42:21.693784+00:00",
        "meta_object_name": "EUTELSAT 172B",
        "meta_object_id": "2017-029B",
        "meta_epoch": "2025-12-24T03:06:38.620224",
        "meta_mean_motion": 1.00270328,
        "meta_eccentricity": 2.028e-05,
        "meta_inclination": 0.0283,
        "meta_ra_of_asc_node": 128.876,
        "meta_arg_of_pericenter": 1.7341,
        "meta_mean_anomaly": 180.9646,
        "meta_ephemeris_type": 0,
        "meta_classification_type": "U",
        "meta_norad_cat_id": 42741,
        "meta_element_set_no": 999,
        "meta_rev_at_epoch": 3197,
        "meta_bstar": 0,
        "meta_mean_motion_dot": 1.5e-07,
        "meta_mean_motion_ddot": 0,
        "tle_line1": "1 42741U 17029B   25358.12961366  .00000015  00000+0  00000+0 0  9998",
        "tle_line2": "2 42741   0.0283 128.8760 0000202   1.7341 180.9646  1.00270328 31972"
      },
      "geometry": {
        "type": "Point",
        "coordinates": [
          -113.69935143488226,
          0.00023736458049468438
        ]
      }
    }
  ]
}